<?xml version="1.0" encoding="UTF-8"?>
<kml xmlns="http://www.opengis.net/kml/2.2" xmlns:gx="http://www.google.com/kml/ext/2.2" xmlns:kml="http://www.opengis.net/kml/2.2" xmlns:atom="http://www.w3.org/2005/Atom">
<Document>
	<name>rencana pipa inpres pamanukan.kml</name>
	<StyleMap id="m_ylw-pushpin0">
		<Pair>
			<key>normal</key>
			<styleUrl>#s_ylw-pushpin</styleUrl>
		</Pair>
		<Pair>
			<key>highlight</key>
			<styleUrl>#s_ylw-pushpin_hl0</styleUrl>
		</Pair>
	</StyleMap>
	<StyleMap id="msn_ylw-pushpin">
		<Pair>
			<key>normal</key>
			<styleUrl>#sn_ylw-pushpin</styleUrl>
		</Pair>
		<Pair>
			<key>highlight</key>
			<styleUrl>#sh_ylw-pushpin0</styleUrl>
		</Pair>
	</StyleMap>
	<StyleMap id="msn_ylw-pushpin0">
		<Pair>
			<key>normal</key>
			<styleUrl>#sn_ylw-pushpin0</styleUrl>
		</Pair>
		<Pair>
			<key>highlight</key>
			<styleUrl>#sh_ylw-pushpin</styleUrl>
		</Pair>
	</StyleMap>
	<Style id="s_ylw-pushpin">
		<IconStyle>
			<scale>1.2</scale>
			<Icon>
				<href>http://maps.google.com/mapfiles/kml/shapes/donut.png</href>
			</Icon>
		</IconStyle>
	</Style>
	<Style id="s_ylw-pushpin_hl0">
		<IconStyle>
			<scale>1.4</scale>
			<Icon>
				<href>http://maps.google.com/mapfiles/kml/shapes/donut.png</href>
			</Icon>
		</IconStyle>
	</Style>
	<Style id="sh_ylw-pushpin">
		<IconStyle>
			<scale>1.3</scale>
			<Icon>
				<href>http://maps.google.com/mapfiles/kml/pushpin/ylw-pushpin.png</href>
			</Icon>
			<hotSpot x="20" y="2" xunits="pixels" yunits="pixels"/>
		</IconStyle>
		<LineStyle>
			<color>ff00ff00</color>
			<width>3</width>
		</LineStyle>
	</Style>
	<Style id="sh_ylw-pushpin0">
		<IconStyle>
			<scale>1.3</scale>
			<Icon>
				<href>http://maps.google.com/mapfiles/kml/pushpin/ylw-pushpin.png</href>
			</Icon>
			<hotSpot x="20" y="2" xunits="pixels" yunits="pixels"/>
		</IconStyle>
		<BalloonStyle>
		</BalloonStyle>
		<LineStyle>
			<color>ff00ff00</color>
			<width>3</width>
		</LineStyle>
	</Style>
	<Style id="sn_ylw-pushpin">
		<IconStyle>
			<scale>1.1</scale>
			<Icon>
				<href>http://maps.google.com/mapfiles/kml/pushpin/ylw-pushpin.png</href>
			</Icon>
			<hotSpot x="20" y="2" xunits="pixels" yunits="pixels"/>
		</IconStyle>
		<BalloonStyle>
		</BalloonStyle>
		<LineStyle>
			<color>ff00ff00</color>
			<width>3</width>
		</LineStyle>
	</Style>
	<Style id="sn_ylw-pushpin0">
		<IconStyle>
			<scale>1.1</scale>
			<Icon>
				<href>http://maps.google.com/mapfiles/kml/pushpin/ylw-pushpin.png</href>
			</Icon>
			<hotSpot x="20" y="2" xunits="pixels" yunits="pixels"/>
		</IconStyle>
		<LineStyle>
			<color>ff00ff00</color>
			<width>3</width>
		</LineStyle>
	</Style>
	<Folder>
		<name>rencana pipa inpres pamanukan</name>
		<open>1</open>
		<Placemark>
			<name>Untitled Path</name>
			<styleUrl>#msn_ylw-pushpin</styleUrl>
			<LineString>
				<tessellate>1</tessellate>
				<coordinates>
					107.7938899223172,-6.308545346198668,0 107.7946069538192,-6.308565674624484,0 107.7946955206781,-6.308530402584172,0 107.7947315293678,-6.308422675755209,0 107.7958181450703,-6.308420211614564,0 107.7961380648764,-6.308479482725647,0 
				</coordinates>
			</LineString>
		</Placemark>
		<Placemark>
			<name>Untitled Path</name>
			<styleUrl>#msn_ylw-pushpin</styleUrl>
			<LineString>
				<tessellate>1</tessellate>
				<coordinates>
					107.7939153709535,-6.307755617865338,0 107.7949663337876,-6.307880985350435,0 107.7962434864195,-6.30799001546068,0 107.7962446107175,-6.307536509602777,0 107.7961521243762,-6.307261665530749,0 107.796095451981,-6.307084404990146,0 
				</coordinates>
			</LineString>
		</Placemark>
		<Placemark>
			<name>Untitled Path</name>
			<styleUrl>#msn_ylw-pushpin</styleUrl>
			<LineString>
				<tessellate>1</tessellate>
				<coordinates>
					107.7939630472795,-6.307548138244142,0 107.7943280791867,-6.307588269171905,0 107.7948283828172,-6.307523941500069,0 107.7950069741084,-6.307451108306694,0 107.7962144931856,-6.306296055546206,0 
				</coordinates>
			</LineString>
		</Placemark>
		<Placemark>
			<name>Untitled Path</name>
			<styleUrl>#msn_ylw-pushpin</styleUrl>
			<LineString>
				<tessellate>1</tessellate>
				<coordinates>
					107.7940086897375,-6.307035387927288,0 107.7943203273184,-6.306960273907721,0 107.7947204989205,-6.30670891325957,0 107.7954430468815,-6.305987454358643,0 
				</coordinates>
			</LineString>
		</Placemark>
		<Placemark>
			<name>Untitled Path</name>
			<styleUrl>#msn_ylw-pushpin</styleUrl>
			<LineString>
				<tessellate>1</tessellate>
				<coordinates>
					107.794919294176,-6.308432132748908,0 107.7948672628723,-6.309710355947586,0 107.7948492963032,-6.310265509195111,0 
				</coordinates>
			</LineString>
		</Placemark>
		<Placemark>
			<name>Untitled Path</name>
			<styleUrl>#msn_ylw-pushpin</styleUrl>
			<LineString>
				<tessellate>1</tessellate>
				<coordinates>
					107.8016277243309,-6.287582971361696,0 107.7925717724596,-6.28969921270824,0 107.7841428967582,-6.291746896822966,0 
				</coordinates>
			</LineString>
		</Placemark>
		<Placemark>
			<name>Untitled Path</name>
			<styleUrl>#msn_ylw-pushpin</styleUrl>
			<LineString>
				<tessellate>1</tessellate>
				<coordinates>
					107.7926664373698,-6.289698571039627,0 107.7928669591835,-6.29103523964025,0 107.7921893336238,-6.298086600711008,0 107.7917179430232,-6.302316268426972,0 107.7936511401572,-6.306391165915945,0 107.7939997039257,-6.30699709161632,0 107.7939480242954,-6.307163473923183,0 107.7938866877282,-6.308539617532549,0 
				</coordinates>
			</LineString>
		</Placemark>
		<Placemark>
			<name>Untitled Path</name>
			<styleUrl>#msn_ylw-pushpin</styleUrl>
			<LineString>
				<tessellate>1</tessellate>
				<coordinates>
					107.7841536244196,-6.291722567830183,0 107.7837877220371,-6.290611326862267,0 107.7836536547205,-6.290286759656608,0 107.7835166644607,-6.289932533122474,0 107.7834243367765,-6.289675352012354,0 107.7834301975417,-6.289297578554898,0 107.7834212302256,-6.289119070668891,0 107.7844857047925,-6.289075981678189,0 107.7851238956729,-6.289044746044309,0 107.7852306551764,-6.289156592678267,0 107.7853555651305,-6.289645071797593,0 107.7855377301563,-6.29076042295889,0 107.7856272337434,-6.291207800982727,0 
				</coordinates>
			</LineString>
		</Placemark>
		<Placemark>
			<name>Untitled Path</name>
			<styleUrl>#msn_ylw-pushpin</styleUrl>
			<LineString>
				<tessellate>1</tessellate>
				<coordinates>
					107.7836118879534,-6.290131388674933,0 107.7839606689645,-6.290015970400937,0 107.7843198262973,-6.289905913242769,0 
				</coordinates>
			</LineString>
		</Placemark>
		<Placemark>
			<name>Untitled Path</name>
			<styleUrl>#msn_ylw-pushpin</styleUrl>
			<LineString>
				<tessellate>1</tessellate>
				<coordinates>
					107.7838188010243,-6.290682609194949,0 107.7840596007273,-6.290625207769287,0 107.7845089555623,-6.290498274572809,0 107.7847197627198,-6.290465610669258,0 
				</coordinates>
			</LineString>
		</Placemark>
		<Placemark>
			<name>Untitled Path</name>
			<styleUrl>#msn_ylw-pushpin</styleUrl>
			<LineString>
				<tessellate>1</tessellate>
				<coordinates>
					107.7853666679977,-6.289593882664061,0 107.7858408409649,-6.289484071128842,0 107.7861635008602,-6.289409955447745,0 107.7866394739783,-6.289294511925158,0 107.7873590266611,-6.289146206075102,0 
				</coordinates>
			</LineString>
		</Placemark>
		<Placemark>
			<name>Untitled Path</name>
			<styleUrl>#msn_ylw-pushpin</styleUrl>
			<LineString>
				<tessellate>1</tessellate>
				<coordinates>
					107.7858029804436,-6.289486787992199,0 107.7857324479048,-6.288964846016125,0 107.7857110982902,-6.288526645177037,0 
				</coordinates>
			</LineString>
		</Placemark>
		<Placemark>
			<name>Untitled Path</name>
			<styleUrl>#msn_ylw-pushpin</styleUrl>
			<LineString>
				<tessellate>1</tessellate>
				<coordinates>
					107.7854720099238,-6.290327690673252,0 107.7857581919081,-6.290269868311209,0 107.7860209916359,-6.290191256341226,0 107.7863325271878,-6.290135204092315,0 107.7862443278889,-6.289668771682193,0 107.7861992161653,-6.289548483029278,0 107.7861549590792,-6.289468825392944,0 107.7860560515302,-6.289435668547349,0 
				</coordinates>
			</LineString>
		</Placemark>
		<Placemark>
			<name>Untitled Path</name>
			<styleUrl>#msn_ylw-pushpin</styleUrl>
			<LineString>
				<tessellate>1</tessellate>
				<coordinates>
					107.7855490212233,-6.290758095219302,0 107.7858310607728,-6.290703155247148,0 107.7860216088918,-6.290668217015699,0 
				</coordinates>
			</LineString>
		</Placemark>
		<Placemark>
			<name>Untitled Path</name>
			<styleUrl>#msn_ylw-pushpin</styleUrl>
			<LineString>
				<tessellate>1</tessellate>
				<coordinates>
					107.7863367455907,-6.290137852850256,0 107.7863736655029,-6.290395775188434,0 107.7864574258216,-6.290689769520251,0 107.7865436147028,-6.291050112052607,0 
				</coordinates>
			</LineString>
		</Placemark>
		<Placemark>
			<name>Untitled Path</name>
			<styleUrl>#msn_ylw-pushpin</styleUrl>
			<LineString>
				<tessellate>1</tessellate>
				<coordinates>
					107.7863001776665,-6.289986030334303,0 107.7864763867377,-6.289957838543988,0 107.7866244243777,-6.289911208346433,0 107.7867010960205,-6.289788380069065,0 107.7867696302459,-6.289725527300293,0 107.7869427565796,-6.289690713118481,0 
				</coordinates>
			</LineString>
		</Placemark>
		<Placemark>
			<name>Untitled Path</name>
			<styleUrl>#msn_ylw-pushpin</styleUrl>
			<LineString>
				<tessellate>1</tessellate>
				<coordinates>
					107.7864300713114,-6.289348293764759,0 107.7864790115964,-6.289489567357188,0 107.7865148492167,-6.289674266983103,0 
				</coordinates>
			</LineString>
		</Placemark>
		<Placemark>
			<name>Untitled Path</name>
			<styleUrl>#msn_ylw-pushpin</styleUrl>
			<LineString>
				<tessellate>1</tessellate>
				<coordinates>
					107.7877778644434,-6.290771082539559,0 107.787682071946,-6.290436603836994,0 107.7876130759204,-6.290156290968247,0 107.7875702570138,-6.289880440331403,0 107.7874488592103,-6.289329482770463,0 107.7873964580208,-6.289178097455344,0 
				</coordinates>
			</LineString>
		</Placemark>
		<Placemark>
			<name>Untitled Path</name>
			<styleUrl>#msn_ylw-pushpin</styleUrl>
			<LineString>
				<tessellate>1</tessellate>
				<coordinates>
					107.7903443163882,-6.28919046194135,0 107.7904897035154,-6.289199392501433,0 107.7905344589633,-6.289114813508853,0 107.7906820792417,-6.289121155153462,0 107.7907019308368,-6.289003503578909,0 107.7907458705675,-6.288994024870157,0 107.7907473912249,-6.28890458170182,0 
				</coordinates>
			</LineString>
		</Placemark>
		<Placemark>
			<name>Untitled Path</name>
			<styleUrl>#msn_ylw-pushpin</styleUrl>
			<LineString>
				<tessellate>1</tessellate>
				<coordinates>
					107.7908801169689,-6.290053791593557,0 107.7908106046635,-6.289750364251385,0 107.7908485026521,-6.289648366828853,0 107.7908592155329,-6.289471889236655,0 107.7909801345227,-6.289456405057249,0 107.7910215797812,-6.289133838820825,0 107.7911378368229,-6.289126955656676,0 
				</coordinates>
			</LineString>
		</Placemark>
		<Placemark>
			<name>ujung pipa 100</name>
			<LookAt>
				<longitude>107.8016985623018</longitude>
				<latitude>-6.288332010683862</latitude>
				<altitude>0</altitude>
				<heading>-10.97991178084234</heading>
				<tilt>15.27655353807277</tilt>
				<range>403.5178518686199</range>
				<gx:altitudeMode>relativeToSeaFloor</gx:altitudeMode>
			</LookAt>
			<styleUrl>#m_ylw-pushpin0</styleUrl>
			<Point>
				<gx:drawOrder>1</gx:drawOrder>
				<coordinates>107.8016839554663,-6.287602888884808,0</coordinates>
			</Point>
		</Placemark>
		<Placemark>
			<name>Untitled Path</name>
			<styleUrl>#msn_ylw-pushpin0</styleUrl>
			<LineString>
				<tessellate>1</tessellate>
				<coordinates>
					107.7861501612424,-6.289388342598427,0 107.786005683945,-6.288919102943762,0 107.7860033217459,-6.288632813677393,0 
				</coordinates>
			</LineString>
		</Placemark>
		<Placemark>
			<name>Untitled Path</name>
			<styleUrl>#msn_ylw-pushpin0</styleUrl>
			<LineString>
				<tessellate>1</tessellate>
				<coordinates>
					107.7866213149455,-6.289280826029087,0 107.7865623757753,-6.28900850182928,0 107.7863044023635,-6.289057924471594,0 107.7862666413633,-6.288776747924835,0 
				</coordinates>
			</LineString>
		</Placemark>
		<Placemark>
			<name>Untitled Path</name>
			<styleUrl>#msn_ylw-pushpin0</styleUrl>
			<LineString>
				<tessellate>1</tessellate>
				<coordinates>
					107.7874065009418,-6.289108494629389,0 107.7873058671141,-6.288809131088234,0 107.7872288235915,-6.288474573128145,0 107.7871793459131,-6.288236987012522,0 
				</coordinates>
			</LineString>
		</Placemark>
		<Placemark>
			<name>Untitled Path</name>
			<styleUrl>#msn_ylw-pushpin0</styleUrl>
			<LineString>
				<tessellate>1</tessellate>
				<coordinates>
					107.7887827510883,-6.288848429289744,0 107.7887433539708,-6.288487640246292,0 
				</coordinates>
			</LineString>
		</Placemark>
		<Placemark>
			<name>Untitled Path</name>
			<styleUrl>#msn_ylw-pushpin0</styleUrl>
			<LineString>
				<tessellate>1</tessellate>
				<coordinates>
					107.7895659699979,-6.288760145926401,0 107.7897066778692,-6.289470953767364,0 107.7898130832292,-6.289978880374757,0 107.7898642661762,-6.290261108454175,0 
				</coordinates>
			</LineString>
		</Placemark>
		<Placemark>
			<name>Untitled Path</name>
			<styleUrl>#msn_ylw-pushpin0</styleUrl>
			<LineString>
				<tessellate>1</tessellate>
				<coordinates>
					107.789566642841,-6.288755677859019,0 107.7900618746363,-6.28862697583761,0 107.790084491589,-6.288622069232783,0 107.7901146684814,-6.288615556966497,0 107.7905163397572,-6.288504470951827,0 107.7908693059685,-6.28845867055583,0 107.791262293787,-6.288436057569305,0 107.7913880394289,-6.288526576305224,0 107.7913878016265,-6.288761928447267,0 107.7913839250062,-6.288954425293575,0 107.791416528783,-6.289303252609827,0 107.7914208231854,-6.28962993937271,0 107.791417463457,-6.289890790497097,0 
				</coordinates>
			</LineString>
		</Placemark>
		<Placemark>
			<name>Untitled Path</name>
			<styleUrl>#msn_ylw-pushpin0</styleUrl>
			<LineString>
				<tessellate>1</tessellate>
				<coordinates>
					107.7913924826395,-6.28863009630372,0 107.7916817987212,-6.288626662708085,0 107.7918355828823,-6.288615424695915,0 107.7918491354904,-6.288612349428943,0 107.7919849370132,-6.288596757438458,0 107.7920426154526,-6.288576294637656,0 107.7922095388609,-6.288555243337416,0 107.7922463649425,-6.288512552871422,0 107.7922534236894,-6.288505219312182,0 107.7924392773049,-6.288467051283796,0 107.7924447354284,-6.288465841047045,0 107.7926678275225,-6.288388483130636,0 
				</coordinates>
			</LineString>
		</Placemark>
		<Placemark>
			<name>Untitled Path</name>
			<styleUrl>#msn_ylw-pushpin0</styleUrl>
			<LineString>
				<tessellate>1</tessellate>
				<coordinates>
					107.7913900161798,-6.288900189808344,0 107.7919954654429,-6.288939167972041,0 
				</coordinates>
			</LineString>
		</Placemark>
		<Placemark>
			<name>Untitled Path</name>
			<styleUrl>#msn_ylw-pushpin0</styleUrl>
			<LineString>
				<tessellate>1</tessellate>
				<coordinates>
					107.7913939288679,-6.289122976406541,0 107.7918024160682,-6.289157608658944,0 107.7918831195728,-6.289188347732761,0 
				</coordinates>
			</LineString>
		</Placemark>
		<Placemark>
			<name>Untitled Path</name>
			<styleUrl>#msn_ylw-pushpin0</styleUrl>
			<LineString>
				<tessellate>1</tessellate>
				<coordinates>
					107.7914237739587,-6.289404104400808,0 107.7916641443193,-6.289471724849198,0 107.7918411932201,-6.289517082878269,0 
				</coordinates>
			</LineString>
		</Placemark>
		<Placemark>
			<name>Untitled Path</name>
			<styleUrl>#msn_ylw-pushpin0</styleUrl>
			<LineString>
				<tessellate>1</tessellate>
				<coordinates>
					107.7890874976311,-6.288823856955642,0 107.7891893562266,-6.288998719506607,0 107.7892774234253,-6.289263343538409,0 107.7893516066675,-6.289560042221784,0 107.7894278231269,-6.289818388662379,0 107.7894842327239,-6.290067451529382,0 
				</coordinates>
			</LineString>
		</Placemark>
		<Placemark>
			<name>Untitled Path</name>
			<styleUrl>#msn_ylw-pushpin0</styleUrl>
			<LineString>
				<tessellate>1</tessellate>
				<coordinates>
					107.7904202452389,-6.290132226791927,0 107.790371002844,-6.289695267840712,0 107.7903545353693,-6.289184433710817,0 107.7903417118288,-6.288828735459954,0 
				</coordinates>
			</LineString>
		</Placemark>
		<Placemark>
			<name>Untitled Path</name>
			<styleUrl>#msn_ylw-pushpin0</styleUrl>
			<LineString>
				<tessellate>1</tessellate>
				<coordinates>
					107.7913965284721,-6.288627228547171,0 107.7912755778393,-6.288633551051484,0 107.791023012364,-6.288681196631637,0 107.7908264342594,-6.288672507269086,0 107.7907268377835,-6.28865710548306,0 107.7907381620955,-6.288798561724105,0 107.7907483752286,-6.288909099712274,0 
				</coordinates>
			</LineString>
		</Placemark>
		<Placemark>
			<name>Untitled Path</name>
			<styleUrl>#msn_ylw-pushpin0</styleUrl>
			<LineString>
				<tessellate>1</tessellate>
				<coordinates>
					107.7875841216202,-6.289899672074257,0 107.7876935428859,-6.289888441531557,0 107.7877937515723,-6.28989612372125,0 107.7878725017829,-6.289877808834853,0 107.7878574171043,-6.2897996003886,0 107.7879881026581,-6.289781885029435,0 107.7880218376574,-6.289989101232158,0 
				</coordinates>
			</LineString>
		</Placemark>
		<Placemark>
			<name>Untitled Path</name>
			<styleUrl>#msn_ylw-pushpin0</styleUrl>
			<LineString>
				<tessellate>1</tessellate>
				<coordinates>
					107.787674137295,-6.290333622856185,0 107.7877724068813,-6.290294369496807,0 107.7879261137809,-6.290210546406414,0 107.7879670399018,-6.290219626951475,0 
				</coordinates>
			</LineString>
		</Placemark>
		<Placemark>
			<name>Untitled Path</name>
			<styleUrl>#msn_ylw-pushpin0</styleUrl>
			<LineString>
				<tessellate>1</tessellate>
				<coordinates>
					107.7874276505139,-6.29090287875099,0 107.7872853836459,-6.290249863239415,0 
				</coordinates>
			</LineString>
		</Placemark>
		<Placemark>
			<name>Untitled Path</name>
			<styleUrl>#msn_ylw-pushpin0</styleUrl>
			<LineString>
				<tessellate>1</tessellate>
				<coordinates>
					107.7881391502596,-6.290706729020789,0 107.7881173721953,-6.29049515051879,0 107.7881062056425,-6.29032312808428,0 107.7880775104981,-6.290220483555506,0 107.7880223128283,-6.290237085707512,0 107.7879648179409,-6.290221672372459,0 
				</coordinates>
			</LineString>
		</Placemark>
		<Placemark>
			<name>Untitled Path</name>
			<styleUrl>#msn_ylw-pushpin0</styleUrl>
			<LineString>
				<tessellate>1</tessellate>
				<coordinates>
					107.7881417103398,-6.288980388814107,0 107.7881766102253,-6.289218335046797,0 107.7882425490335,-6.289477672193503,0 107.7880647775652,-6.289522548514157,0 107.787946484981,-6.289519606169685,0 107.7877029288927,-6.289557811403201,0 107.7875274845954,-6.289603650484765,0 
				</coordinates>
			</LineString>
		</Placemark>
	</Folder>
</Document>
</kml>
